{
  "norad_id": 56545,
  "name": "STARLINK-6086",
  "history": [
    {
      "epoch": "2026-03-28T18:39:14.132160",
      "apogee_km": 486.3147681569899,
      "perigee_km": 484.7052429341893,
      "latitude_deg": -41.3317487955801,
      "longitude_deg": -90.884297600016,
      "semi_major_axis_km": 6863.647005545589,
      "eccentricity": 0.00011725,
      "inclination_deg": 43.0029,
      "raan_deg": 115.5872,
      "arg_perigee_deg": 286.4322,
      "mean_anomaly_deg": 73.64,
      "mean_motion_rev_day": 15.2675852
    }
  ]
}